CCSDS_OMM_VERS,COMMENT,CREATION_DATE,ORIGINATOR,OBJECT_NAME,OBJECT_ID,CENTER_NAME,REF_FRAME,TIME_SYSTEM,MEAN_ELEMENT_THEORY,EPOCH,MEAN_MOTION,ECCENTRICITY,INCLINATION,RA_OF_ASC_NODE,ARG_OF_PERICENTER,MEAN_ANOMALY,EPHEMERIS_TYPE,CLASSIFICATION_TYPE,NORAD_CAT_ID,ELEMENT_SET_NO,REV_AT_EPOCH,BSTAR,MEAN_MOTION_DOT,MEAN_MOTION_DDOT,SEMIMAJOR_AXIS,PERIOD,APOAPSIS,PERIAPSIS,OBJECT_TYPE,RCS_SIZE,COUNTRY_CODE,LAUNCH_DATE,SITE,DECAY_DATE,FILE,GP_ID,TLE_LINE0,TLE_LINE1,TLE_LINE2
2,GENERATED VIA SPACE-TRACK.ORG API,2022-01-22T18:06:57,18 SPCS,SKYNET 4D,1998-002A,EARTH,TEME,UTC,SGP4,2022-01-22T14:18:45.609408,0.99150301,0.0003666,11.7529,20.0355,82.7647,130.0542,0,U,25134,999,8744,0.0,1.7e-07,0,42482.084,1452.341,36119.523,36088.375,PAYLOAD,LARGE,UK,1998-01-10,AFETR,,3280062,194380919,0 SKYNET 4D,1 25134U 98002A   22022.59636122  .00000017  00000-0  00000-0 0  9994,2 25134  11.7529  20.0355 0003666  82.7647 130.0542  0.99150301 87448
2,GENERATED VIA SPACE-TRACK.ORG API,2022-01-23T18:31:28,18 SPCS,SKYNET 4D,1998-002A,EARTH,TEME,UTC,SGP4,2022-01-23T13:50:34.607616,0.99150156,0.0003761,11.7535,20.0297,82.1224,120.6615,0,U,25134,999,8745,0.0,3.1e-07,0,42482.126,1452.343,36119.968,36088.013,PAYLOAD,LARGE,UK,1998-01-10,AFETR,,3280923,194449606,0 SKYNET 4D,1 25134U 98002A   22023.57678944  .00000031  00000-0  00000-0 0  9997,2 25134  11.7535  20.0297 0003761  82.1224 120.6615  0.99150156 87456
2,GENERATED VIA SPACE-TRACK.ORG API,2022-01-23T22:36:21,18 SPCS,SKYNET 4D,1998-002A,EARTH,TEME,UTC,SGP4,2022-01-23T13:50:34.607616,0.99150156,0.0003761,11.7535,20.0297,82.1224,120.6615,0,U,25134,999,8751,0.0,3.1e-07,0,42482.126,1452.343,36119.968,36088.013,PAYLOAD,LARGE,UK,1998-01-10,AFETR,,3281027,194469532,0 SKYNET 4D,1 25134U 98002A   22023.57678944  .00000031  00000-0  00000+0 0  9996,2 25134  11.7535  20.0297 0003761  82.1224 120.6615  0.99150156 87513
2,GENERATED VIA SPACE-TRACK.ORG API,2022-01-24T18:27:30,18 SPCS,SKYNET 4D,1998-002A,EARTH,TEME,UTC,SGP4,2022-01-24T14:05:42.708768,0.99150066,0.0003858,11.7541,20.0239,81.7935,121.6928,0,U,25134,999,8746,0.0,4.3e-07,0,42482.151,1452.344,36120.406,36087.627,PAYLOAD,LARGE,UK,1998-01-10,AFETR,,3281820,194516521,0 SKYNET 4D,1 25134U 98002A   22024.58729987  .00000043  00000-0  00000-0 0  9996,2 25134  11.7541  20.0239 0003858  81.7935 121.6928  0.99150066 87469
2,GENERATED VIA SPACE-TRACK.ORG API,2022-01-25T03:41:17,18 SPCS,SKYNET 4D,1998-002A,EARTH,TEME,UTC,SGP4,2022-01-24T15:23:33.817632,0.99150064,0.0003863,11.7542,20.0236,81.8057,140.9788,0,U,25134,999,8746,0.0,4.3e-07,0,42482.152,1452.344,36120.428,36087.606,PAYLOAD,LARGE,UK,1998-01-10,AFETR,,3282614,194555528,0 SKYNET 4D,1 25134U 98002A   22024.64136363  .00000043  00000-0  00000-0 0  9993,2 25134  11.7542  20.0236 0003863  81.8057 140.9788  0.99150064 87465
2,GENERATED VIA SPACE-TRACK.ORG API,2022-01-25T19:28:22,18 SPCS,SKYNET 4D,1998-002A,EARTH,TEME,UTC,SGP4,2022-01-25T14:14:03.119424,0.99150043,0.0003952,11.7548,20.0183,81.6811,120.8229,0,U,25134,999,8747,0.0,5.1e-07,0,42482.158,1452.344,36120.812,36087.234,PAYLOAD,LARGE,UK,1998-01-10,AFETR,,3283407,194596757,0 SKYNET 4D,1 25134U 98002A   22025.59309166  .00000051  00000-0  00000-0 0  9990,2 25134  11.7548  20.0183 0003952  81.6811 120.8229  0.99150043 87472
2,GENERATED VIA SPACE-TRACK.ORG API,2022-01-25T23:16:11,18 SPCS,SKYNET 4D,1998-002A,EARTH,TEME,UTC,SGP4,2022-01-25T15:31:18.192576,0.99150044,0.0003956,11.7549,20.018,81.7192,139.934,0,U,25134,999,8753,0.0,5.1e-07,0,42482.158,1452.344,36120.829,36087.217,PAYLOAD,LARGE,UK,1998-01-10,AFETR,,3283640,194620236,0 SKYNET 4D,1 25134U 98002A   22025.64673834  .00000051  00000-0  00000+0 0  9991,2 25134  11.7549  20.0180 0003956  81.7192 139.9340  0.99150044 87530
2,GENERATED VIA SPACE-TRACK.ORG API,2022-01-26T03:30:25,18 SPCS,SKYNET 4D,1998-002A,EARTH,TEME,UTC,SGP4,2022-01-25T15:31:18.192576,0.99150044,0.0003956,11.7549,20.018,81.7192,139.934,0,U,25134,999,8747,0.0,5.2e-07,0,42482.158,1452.344,36120.829,36087.217,PAYLOAD,LARGE,UK,1998-01-10,AFETR,,3283711,194627898,0 SKYNET 4D,1 25134U 98002A   22025.64673834  .00000052  00000-0  00000-0 0  9993,2 25134  11.7549  20.0180 0003956  81.7192 139.9340  0.99150044 87473
2,GENERATED VIA SPACE-TRACK.ORG API,2022-01-26T18:13:44,18 SPCS,SKYNET 4D,1998-002A,EARTH,TEME,UTC,SGP4,2022-01-26T13:25:43.695264,0.99150089,0.0004033,11.7555,20.0131,81.8833,105.5922,0,U,25134,999,8748,0.0,5.6e-07,0,42482.145,1452.344,36121.143,36086.877,PAYLOAD,LARGE,UK,1998-01-10,AFETR,,3284266,194665411,0 SKYNET 4D,1 25134U 98002A   22026.55953351  .00000056  00000-0  00000-0 0  9993,2 25134  11.7555  20.0131 0004033  81.8833 105.5922  0.99150089 87481
2,GENERATED VIA SPACE-TRACK.ORG API,2022-01-27T05:38:10,18 SPCS,SKYNET 4D,1998-002A,EARTH,TEME,UTC,SGP4,2022-01-26T15:48:24.217632,0.991501,0.0004042,11.7556,20.0126,81.9056,140.9367,0,U,25134,999,8748,0.0,5.7e-07,0,42482.142,1452.343,36121.178,36086.835,PAYLOAD,LARGE,UK,1998-01-10,AFETR,,3284696,194697302,0 SKYNET 4D,1 25134U 98002A   22026.65861363  .00000057  00000-0  00000-0 0  9996,2 25134  11.7556  20.0126 0004042  81.9056 140.9367  0.99150100 87484
2,GENERATED VIA SPACE-TRACK.ORG API,2022-01-27T17:50:47,18 SPCS,SKYNET 4D,1998-002A,EARTH,TEME,UTC,SGP4,2022-01-27T14:35:55.467168,0.99150228,0.0004108,11.7562,20.0077,82.2766,119.5498,0,U,25134,999,8749,0.0,5.8e-07,0,42482.105,1452.342,36121.422,36086.519,PAYLOAD,LARGE,UK,1998-01-10,AFETR,,3284946,194727182,0 SKYNET 4D,1 25134U 98002A   22027.60828087  .00000058  00000-0  00000-0 0  9999,2 25134  11.7562  20.0077 0004108  82.2766 119.5498  0.99150228 87490
2,GENERATED VIA SPACE-TRACK.ORG API,2022-01-28T06:46:17,18 SPCS,SKYNET 4D,1998-002A,EARTH,TEME,UTC,SGP4,2022-01-28T01:42:49.378176,0.99150345,0.0004129,11.7566,20.0053,82.4819,284.6571,0,U,25134,999,8756,0.0,5.8e-07,0,42482.072,1452.34,36121.478,36086.396,PAYLOAD,LARGE,UK,1998-01-10,AFETR,,3285571,194783226,0 SKYNET 4D,1 25134U 98002A   22028.07140484  .00000058  00000-0  00000+0 0  9998,2 25134  11.7566  20.0053 0004129  82.4819 284.6571  0.99150345 87566
2,GENERATED VIA SPACE-TRACK.ORG API,2022-01-28T18:34:45,18 SPCS,SKYNET 4D,1998-002A,EARTH,TEME,UTC,SGP4,2022-01-28T10:52:06.042144,0.99150413,0.0004149,11.7568,20.0033,82.6542,60.6411,0,U,25134,999,8750,0.0,5.7e-07,0,42482.052,1452.339,36121.543,36086.292,PAYLOAD,LARGE,UK,1998-01-10,AFETR,,3285972,194799369,0 SKYNET 4D,1 25134U 98002A   22028.45284771  .00000057  00000-0  00000-0 0  9998,2 25134  11.7568  20.0033 0004149  82.6542  60.6411  0.99150413 87508
2,GENERATED VIA SPACE-TRACK.ORG API,2022-01-29T03:09:56,18 SPCS,SKYNET 4D,1998-002A,EARTH,TEME,UTC,SGP4,2022-01-28T15:52:11.568864,0.99150461,0.0004164,11.7569,20.0024,82.8268,134.8563,0,U,25134,999,8750,0.0,5.7e-07,0,42482.039,1452.338,36121.593,36086.214,PAYLOAD,LARGE,UK,1998-01-10,AFETR,,3286235,194829906,0 SKYNET 4D,1 25134U 98002A   22028.66124501  .00000057  00000-0  00000-0 0  9995,2 25134  11.7569  20.0024 0004164  82.8268 134.8563  0.99150461 87508
2,GENERATED VIA SPACE-TRACK.ORG API,2022-01-29T19:49:12,18 SPCS,SKYNET 4D,1998-002A,EARTH,TEME,UTC,SGP4,2022-01-29T13:15:59.212224,0.99150735,0.000419,11.7576,19.9979,83.3709,92.5432,0,U,25134,999,8751,0.0,5.3e-07,0,42481.96,1452.334,36121.625,36086.025,PAYLOAD,LARGE,UK,1998-01-10,AFETR,,3286885,194869008,0 SKYNET 4D,1 25134U 98002A   22029.55276866  .00000053  00000-0  00000-0 0  9992,2 25134  11.7576  19.9979 0004190  83.3709  92.5432  0.99150735 87517
2,GENERATED VIA SPACE-TRACK.ORG API,2022-01-30T03:42:58,18 SPCS,SKYNET 4D,1998-002A,EARTH,TEME,UTC,SGP4,2022-01-29T15:47:00.633408,0.99150768,0.0004197,11.7576,19.9974,83.4348,129.9155,0,U,25134,999,8751,0.0,5.2e-07,0,42481.951,1452.334,36121.646,36085.986,PAYLOAD,LARGE,UK,1998-01-10,AFETR,,3287083,194898774,0 SKYNET 4D,1 25134U 98002A   22029.65764622  .00000052  00000-0  00000-0 0  9994,2 25134  11.7576  19.9974 0004197  83.4348 129.9155  0.99150768 87512
2,GENERATED VIA SPACE-TRACK.ORG API,2022-01-30T06:56:12,18 SPCS,SKYNET 4D,1998-002A,EARTH,TEME,UTC,SGP4,2022-01-30T03:24:09.194976,0.99150969,0.0004205,11.758,19.9949,83.7435,302.4174,0,U,25134,999,8758,0.0,4.9e-07,0,42481.894,1452.331,36121.622,36085.895,PAYLOAD,LARGE,UK,1998-01-10,AFETR,,3287205,194919962,0 SKYNET 4D,1 25134U 98002A   22030.14177309  .00000049  00000-0  00000+0 0  9995,2 25134  11.7580  19.9949 0004205  83.7435 302.4174  0.99150969 87588
2,GENERATED VIA SPACE-TRACK.ORG API,2022-01-30T20:08:58,18 SPCS,SKYNET 4D,1998-002A,EARTH,TEME,UTC,SGP4,2022-01-30T13:50:10.056192,0.99151128,0.0004208,11.7583,19.9927,83.9713,97.3687,0,U,25134,999,8752,0.0,4.5e-07,0,42481.848,1452.328,36121.589,36085.837,PAYLOAD,LARGE,UK,1998-01-10,AFETR,,3287677,194937721,0 SKYNET 4D,1 25134U 98002A   22030.57650528  .00000045  00000-0  00000-0 0  9998,2 25134  11.7583  19.9927 0004208  83.9713  97.3687  0.99151128 87522
2,GENERATED VIA SPACE-TRACK.ORG API,2022-01-31T02:27:54,18 SPCS,SKYNET 4D,1998-002A,EARTH,TEME,UTC,SGP4,2022-01-30T16:19:11.410752,0.99151168,0.0004213,11.7583,19.9922,84.0296,134.2508,0,U,25134,999,8752,0.0,4.4e-07,0,42481.837,1452.328,36121.599,36085.804,PAYLOAD,LARGE,UK,1998-01-10,AFETR,,3287903,194969063,0 SKYNET 4D,1 25134U 98002A   22030.67999318  .00000044  00000-0  00000-0 0  9991,2 25134  11.7583  19.9922 0004213  84.0296 134.2508  0.99151168 87528
2,GENERATED VIA SPACE-TRACK.ORG API,2022-01-31T18:08:21,18 SPCS,SKYNET 4D,1998-002A,EARTH,TEME,UTC,SGP4,2022-01-31T12:58:39.133344,0.99151578,0.00042,11.7589,19.9878,84.6076,80.9171,0,U,25134,999,8753,0.0,3.5e-07,0,42481.72,1452.322,36121.427,36085.742,PAYLOAD,LARGE,UK,1998-01-10,AFETR,,3288447,195005348,0 SKYNET 4D,1 25134U 98002A   22031.54073071  .00000035  00000-0  00000-0 0  9997,2 25134  11.7589  19.9878 0004200  84.6076  80.9171  0.99151578 87531
